start=new Date('2021-10-08T00:00:00.000Z').valueOf();
sats=[{"PERIAPSIS":"546.394","PERIOD":"95.592","ELEMENT_SET_NO":"999","INCLINATION":"53.0533","SEMIMAJOR_AXIS":"6925.352","MEAN_MOTION":"15.06398830","TLE_LINE2":"2 45072  53.0533 312.9797 0001188  82.8567 277.2557 15.06398830 93449","CENTER_NAME":"EARTH","BSTAR":"0.00017099000000","GP_ID":"186460629","EPHEMERIS_TYPE":"0","COUNTRY_CODE":"US","SITE":"AFETR","OBJECT_TYPE":"PAYLOAD","NORAD_CAT_ID":"45072","RA_OF_ASC_NODE":"312.9797","RCS_SIZE":"LARGE","OBJECT_ID":"2020-006AE","APOAPSIS":"548.040","MEAN_ANOMALY":"277.2557","ECCENTRICITY":"0.00011880","OBJECT_NAME":"STARLINK-1168","CLASSIFICATION_TYPE":"U","LAUNCH_DATE":"2020-01-29","MEAN_ELEMENT_THEORY":"SGP4","TIME_SYSTEM":"UTC","REV_AT_EPOCH":"9344","MEAN_MOTION_DDOT":"0.0000000000000","EPOCH":"2021-10-07T12:09:49.862304","TLE_LINE1":"1 45072U 20006AE  21280.50682711  .00002266  00000-0  17099-3 0  9994","ARG_OF_PERICENTER":"82.8567","MEAN_MOTION_DOT":"0.00002266","DECAY_DATE":null,"FILE":"3149232","REF_FRAME":"TEME"},{"MEAN_ANOMALY":"269.9806","ECCENTRICITY":"0.00009430","OBJECT_NAME":"STARLINK-1170","OBJECT_ID":"2020-006AF","APOAPSIS":"547.848","ARG_OF_PERICENTER":"90.1291","TLE_LINE1":"1 45073U 20006AF  21280.46625207  .00001504  00000-0  11979-3 0  9992","MEAN_MOTION_DOT":"0.00001504","DECAY_DATE":null,"FILE":"3149232","REF_FRAME":"TEME","LAUNCH_DATE":"2020-01-29","CLASSIFICATION_TYPE":"U","MEAN_ELEMENT_THEORY":"SGP4","TIME_SYSTEM":"UTC","REV_AT_EPOCH":"9343","MEAN_MOTION_DDOT":"0.0000000000000","EPOCH":"2021-10-07T11:11:24.178848","MEAN_MOTION":"15.06406015","TLE_LINE2":"2 45073  53.0546 313.1491 0000943  90.1291 269.9806 15.06406015 93431","CENTER_NAME":"EARTH","PERIOD":"95.592","PERIAPSIS":"546.542","ELEMENT_SET_NO":"999","INCLINATION":"53.0546","SEMIMAJOR_AXIS":"6925.330","SITE":"AFETR","NORAD_CAT_ID":"45073","OBJECT_TYPE":"PAYLOAD","RCS_SIZE":"LARGE","RA_OF_ASC_NODE":"313.1491","BSTAR":"0.00011979000000","GP_ID":"186461381","EPHEMERIS_TYPE":"0","COUNTRY_CODE":"US"},{"SITE":"AFETR","RA_OF_ASC_NODE":"312.9290","RCS_SIZE":"LARGE","OBJECT_TYPE":"PAYLOAD","NORAD_CAT_ID":"45074","BSTAR":"-0.00000170530000","COUNTRY_CODE":"US","GP_ID":"186510552","EPHEMERIS_TYPE":"0","MEAN_MOTION":"15.06393661","CENTER_NAME":"EARTH","TLE_LINE2":"2 45074  53.0553 312.9290 0001295  78.0949 282.0185 15.06393661 93449","ELEMENT_SET_NO":"999","PERIAPSIS":"546.336","PERIOD":"95.593","SEMIMAJOR_AXIS":"6925.368","INCLINATION":"53.0553","TLE_LINE1":"1 45074U 20006AG  21280.51787687 -.00000307  00000-0 -17053-5 0  9993","ARG_OF_PERICENTER":"78.0949","FILE":"3150302","REF_FRAME":"TEME","MEAN_MOTION_DOT":"-0.00000307","DECAY_DATE":null,"MEAN_ELEMENT_THEORY":"SGP4","LAUNCH_DATE":"2020-01-29","CLASSIFICATION_TYPE":"U","EPOCH":"2021-10-07T12:25:44.561568","MEAN_MOTION_DDOT":"0.0000000000000","REV_AT_EPOCH":"9344","TIME_SYSTEM":"UTC","ECCENTRICITY":"0.00012950","MEAN_ANOMALY":"282.0185","OBJECT_NAME":"STARLINK-1172","OBJECT_ID":"2020-006AG","APOAPSIS":"548.130"},{"OBJECT_NAME":"STARLINK-1174","ECCENTRICITY":"0.00010030","MEAN_ANOMALY":"281.1519","APOAPSIS":"547.880","OBJECT_ID":"2020-006AH","FILE":"3149232","REF_FRAME":"TEME","DECAY_DATE":null,"MEAN_MOTION_DOT":"0.00001684","TLE_LINE1":"1 45075U 20006AH  21280.48468327  .00001684  00000-0  13190-3 0  9990","ARG_OF_PERICENTER":"78.9582","MEAN_MOTION_DDOT":"0.0000000000000","EPOCH":"2021-10-07T11:37:56.634528","REV_AT_EPOCH":"9344","TIME_SYSTEM":"UTC","MEAN_ELEMENT_THEORY":"SGP4","CLASSIFICATION_TYPE":"U","LAUNCH_DATE":"2020-01-29","CENTER_NAME":"EARTH","TLE_LINE2":"2 45075  53.0558 313.0774 0001003  78.9582 281.1519 15.06409142 93446","MEAN_MOTION":"15.06409142","SEMIMAJOR_AXIS":"6925.321","INCLINATION":"53.0558","ELEMENT_SET_NO":"999","PERIAPSIS":"546.491","PERIOD":"95.592","RA_OF_ASC_NODE":"313.0774","RCS_SIZE":"LARGE","NORAD_CAT_ID":"45075","OBJECT_TYPE":"PAYLOAD","SITE":"AFETR","COUNTRY_CODE":"US","EPHEMERIS_TYPE":"0","GP_ID":"186459879","BSTAR":"0.00013190000000"},{"SITE":"AFETR","RA_OF_ASC_NODE":"313.6326","RCS_SIZE":"LARGE","NORAD_CAT_ID":"45076","OBJECT_TYPE":"PAYLOAD","BSTAR":"0.00002555800000","COUNTRY_CODE":"US","EPHEMERIS_TYPE":"0","GP_ID":"186460129","MEAN_MOTION":"15.06394664","CENTER_NAME":"EARTH","TLE_LINE2":"2 45076  53.0546 313.6326 0001076  87.7023 272.4089 15.06394664 93426","ELEMENT_SET_NO":"999","PERIAPSIS":"546.485","PERIOD":"95.592","SEMIMAJOR_AXIS":"6925.365","INCLINATION":"53.0546","TLE_LINE1":"1 45076U 20006AJ  21280.35937742  .00000099  00000-0  25558-4 0  9990","ARG_OF_PERICENTER":"87.7023","FILE":"3149232","REF_FRAME":"TEME","DECAY_DATE":null,"MEAN_MOTION_DOT":"0.00000099","MEAN_ELEMENT_THEORY":"SGP4","CLASSIFICATION_TYPE":"U","LAUNCH_DATE":"2020-01-29","EPOCH":"2021-10-07T08:37:30.209088","MEAN_MOTION_DDOT":"0.0000000000000","REV_AT_EPOCH":"9342","TIME_SYSTEM":"UTC","ECCENTRICITY":"0.00010760","MEAN_ANOMALY":"272.4089","OBJECT_NAME":"STARLINK-1180","OBJECT_ID":"2020-006AJ","APOAPSIS":"547.975"},{"ECCENTRICITY":"0.00017440","MEAN_ANOMALY":"304.8656","OBJECT_NAME":"STARLINK-1182","OBJECT_ID":"2020-006AK","APOAPSIS":"447.616","TLE_LINE1":"1 45077U 20006AK  21280.49087771  .00001353  00000-0  43458-4 0  9997","ARG_OF_PERICENTER":"55.2512","REF_FRAME":"TEME","FILE":"3149232","MEAN_MOTION_DOT":"0.00001353","DECAY_DATE":null,"MEAN_ELEMENT_THEORY":"SGP4","LAUNCH_DATE":"2020-01-29","CLASSIFICATION_TYPE":"U","EPOCH":"2021-10-07T11:46:51.834144","MEAN_MOTION_DDOT":"0.0000000000000","REV_AT_EPOCH":"9366","TIME_SYSTEM":"UTC","MEAN_MOTION":"15.39893399","CENTER_NAME":"EARTH","TLE_LINE2":"2 45077  53.0555 297.3128 0001744  55.2512 304.8656 15.39893399 93661","ELEMENT_SET_NO":"999","PERIAPSIS":"445.236","PERIOD":"93.513","SEMIMAJOR_AXIS":"6824.561","INCLINATION":"53.0555","SITE":"AFETR","RA_OF_ASC_NODE":"297.3128","RCS_SIZE":"LARGE","NORAD_CAT_ID":"45077","OBJECT_TYPE":"PAYLOAD","BSTAR":"0.00004345800000","COUNTRY_CODE":"US","GP_ID":"186460881","EPHEMERIS_TYPE":"0"},{"OBJECT_ID":"2020-006AL","APOAPSIS":"548.292","ECCENTRICITY":"0.00015280","MEAN_ANOMALY":"286.1043","OBJECT_NAME":"STARLINK-1177","MEAN_ELEMENT_THEORY":"SGP4","LAUNCH_DATE":"2020-01-29","CLASSIFICATION_TYPE":"U","EPOCH":"2021-10-07T12:15:07.797888","MEAN_MOTION_DDOT":"0.0000000000000","TIME_SYSTEM":"UTC","REV_AT_EPOCH":"9343","TLE_LINE1":"1 45078U 20006AL  21280.51050692  .00001643  00000-0  12919-3 0  9992","ARG_OF_PERICENTER":"74.0114","FILE":"3149232","REF_FRAME":"TEME","DECAY_DATE":null,"MEAN_MOTION_DOT":"0.00001643","ELEMENT_SET_NO":"999","PERIAPSIS":"546.175","PERIOD":"95.593","SEMIMAJOR_AXIS":"6925.369","INCLINATION":"53.0565","MEAN_MOTION":"15.06393473","CENTER_NAME":"EARTH","TLE_LINE2":"2 45078  53.0565 312.9457 0001528  74.0114 286.1043 15.06393473 93438","BSTAR":"0.00012919000000","COUNTRY_CODE":"US","GP_ID":"186461126","EPHEMERIS_TYPE":"0","SITE":"AFETR","RA_OF_ASC_NODE":"312.9457","RCS_SIZE":"LARGE","NORAD_CAT_ID":"45078","OBJECT_TYPE":"PAYLOAD"},{"REV_AT_EPOCH":"9345","TIME_SYSTEM":"UTC","MEAN_MOTION_DDOT":"0.0000000000000","EPOCH":"2021-10-07T14:54:21.216960","LAUNCH_DATE":"2020-01-29","CLASSIFICATION_TYPE":"U","MEAN_ELEMENT_THEORY":"SGP4","DECAY_DATE":null,"MEAN_MOTION_DOT":"0.00001156","REF_FRAME":"TEME","FILE":"3150302","TLE_LINE1":"1 45079U 20006AM  21280.62107890  .00001156  00000-0  96519-4 0  9996","ARG_OF_PERICENTER":"95.7027","APOAPSIS":"548.104","OBJECT_ID":"2020-006AM","OBJECT_NAME":"STARLINK-1149","MEAN_ANOMALY":"264.4104","ECCENTRICITY":"0.00012440","EPHEMERIS_TYPE":"0","GP_ID":"186508826","COUNTRY_CODE":"US","BSTAR":"0.00009651900000","OBJECT_TYPE":"PAYLOAD","NORAD_CAT_ID":"45079","RA_OF_ASC_NODE":"312.4671","RCS_SIZE":"LARGE","SITE":"AFETR","INCLINATION":"53.0538","SEMIMAJOR_AXIS":"6925.378","PERIAPSIS":"546.381","PERIOD":"95.593","ELEMENT_SET_NO":"999","TLE_LINE2":"2 45079  53.0538 312.4671 0001244  95.7027 264.4104 15.06390418 93455","CENTER_NAME":"EARTH","MEAN_MOTION":"15.06390418"},{"OBJECT_TYPE":"PAYLOAD","NORAD_CAT_ID":"45080","RCS_SIZE":"LARGE","RA_OF_ASC_NODE":"312.7232","SITE":"AFETR","GP_ID":"186460630","EPHEMERIS_TYPE":"0","COUNTRY_CODE":"US","BSTAR":"0.00017857000000","TLE_LINE2":"2 45080  53.0545 312.7232 0001156  83.6651 276.4469 15.06392949 93450","CENTER_NAME":"EARTH","MEAN_MOTION":"15.06392949","INCLINATION":"53.0545","SEMIMAJOR_AXIS":"6925.370","PERIOD":"95.593","PERIAPSIS":"546.435","ELEMENT_SET_NO":"999","DECAY_DATE":null,"MEAN_MOTION_DOT":"0.00002379","REF_FRAME":"TEME","FILE":"3149232","ARG_OF_PERICENTER":"83.6651","TLE_LINE1":"1 45080U 20006AN  21280.56210719  .00002379  00000-0  17857-3 0  9991","TIME_SYSTEM":"UTC","REV_AT_EPOCH":"9345","MEAN_MOTION_DDOT":"0.0000000000000","EPOCH":"2021-10-07T13:29:26.061216","CLASSIFICATION_TYPE":"U","LAUNCH_DATE":"2020-01-29","MEAN_ELEMENT_THEORY":"SGP4","OBJECT_NAME":"STARLINK-1153","MEAN_ANOMALY":"276.4469","ECCENTRICITY":"0.00011560","APOAPSIS":"548.036","OBJECT_ID":"2020-006AN"},{"MEAN_MOTION_DOT":"0.00000225","DECAY_DATE":null,"FILE":"3150302","REF_FRAME":"TEME","ARG_OF_PERICENTER":"80.6483","TLE_LINE1":"1 45081U 20006AP  21280.60633026  .00000225  00000-0  33982-4 0  9993","TIME_SYSTEM":"UTC","REV_AT_EPOCH":"9346","EPOCH":"2021-10-07T14:33:06.934464","MEAN_MOTION_DDOT":"0.0000000000000","LAUNCH_DATE":"2020-01-29","CLASSIFICATION_TYPE":"U","MEAN_ELEMENT_THEORY":"SGP4","OBJECT_NAME":"STARLINK-1151","MEAN_ANOMALY":"279.4614","ECCENTRICITY":"0.00009530","APOAPSIS":"547.878","OBJECT_ID":"2020-006AP","NORAD_CAT_ID":"45081","OBJECT_TYPE":"PAYLOAD","RCS_SIZE":"LARGE","RA_OF_ASC_NODE":"312.5296","SITE":"AFETR","GP_ID":"186509826","EPHEMERIS_TYPE":"0","COUNTRY_CODE":"US","BSTAR":"0.00003398200000","TLE_LINE2":"2 45081  53.0554 312.5296 0000953  80.6483 279.4614 15.06398421 93460","CENTER_NAME":"EARTH","MEAN_MOTION":"15.06398421","INCLINATION":"53.0554","SEMIMAJOR_AXIS":"6925.353","PERIOD":"95.592","PERIAPSIS":"546.558","ELEMENT_SET_NO":"999"}];
